start=new Date('2022-10-26T00:00:00.000Z').valueOf();
sats=[{"INCLINATION":"53.0561","MEAN_ANOMALY":"298.4267","TLE_LINE2":"2 45583  53.0561 203.7943 0001660  61.6889 298.4267 15.06388671139338","PERIOD":"95.593","ARG_OF_PERICENTER":"61.6889","ELEMENT_SET_NO":"999","TIME_SYSTEM":"UTC","MEAN_MOTION_DOT":"-0.00002568","OBJECT_ID":"2020-025BE","MEAN_ELEMENT_THEORY":"SGP4","FILE":"3633088","EPOCH":"2022-10-25T11:13:22.192608","REV_AT_EPOCH":"13933","CLASSIFICATION_TYPE":"U","DECAY_DATE":null,"OBJECT_NAME":"STARLINK-1340","RA_OF_ASC_NODE":"203.7943","COUNTRY_CODE":"US","SEMIMAJOR_AXIS":"6925.383","NORAD_CAT_ID":"45583","LAUNCH_DATE":"2020-04-22","TLE_LINE1":"1 45583U 20025BE  22298.46761797 -.00002568  00000-0 -15358-3 0  9992","SITE":"AFETR","MEAN_MOTION":"15.06388671","CENTER_NAME":"EARTH","OBJECT_TYPE":"PAYLOAD","EPHEMERIS_TYPE":"0","ECCENTRICITY":"0.00016600","MEAN_MOTION_DDOT":"0.0000000000000","PERIAPSIS":"546.099","APOAPSIS":"548.398","REF_FRAME":"TEME","GP_ID":"216127327","BSTAR":"-0.00015358000000","RCS_SIZE":"LARGE"},{"OBJECT_TYPE":"PAYLOAD","EPHEMERIS_TYPE":"0","ECCENTRICITY":"0.00011510","MEAN_MOTION_DDOT":"0.0000000000000","PERIAPSIS":"546.441","APOAPSIS":"548.035","REF_FRAME":"TEME","GP_ID":"216150792","RCS_SIZE":"LARGE","BSTAR":"-0.00008442600000","RA_OF_ASC_NODE":"202.6532","COUNTRY_CODE":"US","SEMIMAJOR_AXIS":"6925.373","NORAD_CAT_ID":"45584","LAUNCH_DATE":"2020-04-22","TLE_LINE1":"1 45584U 20025BF  22298.72099944 -.00001538  00000-0 -84426-4 0  9999","SITE":"AFETR","MEAN_MOTION":"15.06391942","CENTER_NAME":"EARTH","OBJECT_ID":"2020-025BF","MEAN_ELEMENT_THEORY":"SGP4","FILE":"3633327","EPOCH":"2022-10-25T17:18:14.351616","REV_AT_EPOCH":"13997","CLASSIFICATION_TYPE":"U","DECAY_DATE":null,"OBJECT_NAME":"STARLINK-1343","INCLINATION":"53.0550","MEAN_ANOMALY":"279.1999","TLE_LINE2":"2 45584  53.0550 202.6532 0001151  80.9120 279.1999 15.06391942139979","PERIOD":"95.593","ARG_OF_PERICENTER":"80.9120","ELEMENT_SET_NO":"999","TIME_SYSTEM":"UTC","MEAN_MOTION_DOT":"-0.00001538"},{"TIME_SYSTEM":"UTC","ELEMENT_SET_NO":"999","MEAN_MOTION_DOT":"-0.00001627","PERIOD":"95.592","TLE_LINE2":"2 45586  53.0551 202.8575 0001424  91.7403 268.3749 15.06397745139956","MEAN_ANOMALY":"268.3749","INCLINATION":"53.0551","ARG_OF_PERICENTER":"91.7403","REV_AT_EPOCH":"13995","EPOCH":"2022-10-25T16:15:54.174240","DECAY_DATE":null,"OBJECT_NAME":"STARLINK-1347","CLASSIFICATION_TYPE":"U","OBJECT_ID":"2020-025BH","FILE":"3633327","MEAN_ELEMENT_THEORY":"SGP4","LAUNCH_DATE":"2020-04-22","NORAD_CAT_ID":"45586","MEAN_MOTION":"15.06397745","CENTER_NAME":"EARTH","SITE":"AFETR","TLE_LINE1":"1 45586U 20025BH  22298.67771035 -.00001627  00000-0 -90353-4 0  9998","SEMIMAJOR_AXIS":"6925.355","COUNTRY_CODE":"US","RA_OF_ASC_NODE":"202.8575","REF_FRAME":"TEME","GP_ID":"216151541","APOAPSIS":"548.207","PERIAPSIS":"546.234","RCS_SIZE":"LARGE","BSTAR":"-0.00009035300000","MEAN_MOTION_DDOT":"0.0000000000000","ECCENTRICITY":"0.00014240","OBJECT_TYPE":"PAYLOAD","EPHEMERIS_TYPE":"0"},{"DECAY_DATE":null,"OBJECT_NAME":"STARLINK-1349","CLASSIFICATION_TYPE":"U","REV_AT_EPOCH":"13933","EPOCH":"2022-10-25T10:46:50.215584","FILE":"3633107","MEAN_ELEMENT_THEORY":"SGP4","OBJECT_ID":"2020-025BJ","MEAN_MOTION_DOT":"-0.00001202","ELEMENT_SET_NO":"999","TIME_SYSTEM":"UTC","ARG_OF_PERICENTER":"85.2518","TLE_LINE2":"2 45587  53.0548 203.8803 0001486  85.2518 274.8641 15.06384517139339","PERIOD":"95.593","MEAN_ANOMALY":"274.8641","INCLINATION":"53.0548","BSTAR":"-0.00006186200000","RCS_SIZE":"LARGE","APOAPSIS":"548.290","REF_FRAME":"TEME","GP_ID":"216127574","PERIAPSIS":"546.232","MEAN_MOTION_DDOT":"0.0000000000000","EPHEMERIS_TYPE":"0","OBJECT_TYPE":"PAYLOAD","ECCENTRICITY":"0.00014860","SITE":"AFETR","TLE_LINE1":"1 45587U 20025BJ  22298.44919231 -.00001202  00000-0 -61862-4 0  9998","CENTER_NAME":"EARTH","MEAN_MOTION":"15.06384517","NORAD_CAT_ID":"45587","LAUNCH_DATE":"2020-04-22","SEMIMAJOR_AXIS":"6925.396","RA_OF_ASC_NODE":"203.8803","COUNTRY_CODE":"US"},{"ARG_OF_PERICENTER":"104.1717","PERIOD":"95.594","TLE_LINE2":"2 45588  53.0532 205.1627 0001263 104.1717 255.9412 15.06375390139882","MEAN_ANOMALY":"255.9412","INCLINATION":"53.0532","MEAN_MOTION_DOT":"-0.00004770","TIME_SYSTEM":"UTC","ELEMENT_SET_NO":"999","FILE":"3633075","MEAN_ELEMENT_THEORY":"SGP4","OBJECT_ID":"2020-025BK","OBJECT_NAME":"STARLINK-1360","DECAY_DATE":null,"CLASSIFICATION_TYPE":"U","REV_AT_EPOCH":"13988","EPOCH":"2022-10-25T03:52:49.437120","SEMIMAJOR_AXIS":"6925.424","COUNTRY_CODE":"US","RA_OF_ASC_NODE":"205.1627","MEAN_MOTION":"15.06375390","CENTER_NAME":"EARTH","SITE":"AFETR","TLE_LINE1":"1 45588U 20025BK  22298.16168330 -.00004770  00000-0 -30177-3 0  9991","LAUNCH_DATE":"2020-04-22","NORAD_CAT_ID":"45588","MEAN_MOTION_DDOT":"0.0000000000000","ECCENTRICITY":"0.00012630","OBJECT_TYPE":"PAYLOAD","EPHEMERIS_TYPE":"0","BSTAR":"-0.00030177000000","RCS_SIZE":"LARGE","REF_FRAME":"TEME","GP_ID":"216120589","APOAPSIS":"548.164","PERIAPSIS":"546.414"},{"INCLINATION":"53.0559","MEAN_ANOMALY":"278.9443","TLE_LINE2":"2 45589  53.0559 205.1880 0001408  81.1705 278.9443 15.06380321139884","PERIOD":"95.593","ARG_OF_PERICENTER":"81.1705","ELEMENT_SET_NO":"999","TIME_SYSTEM":"UTC","MEAN_MOTION_DOT":"-0.00003525","OBJECT_ID":"2020-025BL","MEAN_ELEMENT_THEORY":"SGP4","FILE":"3633075","EPOCH":"2022-10-25T03:47:31.390080","REV_AT_EPOCH":"13988","CLASSIFICATION_TYPE":"U","OBJECT_NAME":"STARLINK-1364","DECAY_DATE":null,"RA_OF_ASC_NODE":"205.1880","COUNTRY_CODE":"US","SEMIMAJOR_AXIS":"6925.409","NORAD_CAT_ID":"45589","LAUNCH_DATE":"2020-04-22","TLE_LINE1":"1 45589U 20025BL  22298.15800220 -.00003525  00000-0 -21796-3 0  9996","SITE":"AFETR","MEAN_MOTION":"15.06380321","CENTER_NAME":"EARTH","OBJECT_TYPE":"PAYLOAD","EPHEMERIS_TYPE":"0","ECCENTRICITY":"0.00014080","MEAN_MOTION_DDOT":"0.0000000000000","PERIAPSIS":"546.299","APOAPSIS":"548.249","GP_ID":"216121324","REF_FRAME":"TEME","RCS_SIZE":"LARGE","BSTAR":"-0.00021796000000"},{"ARG_OF_PERICENTER":"51.9297","MEAN_ANOMALY":"308.1899","INCLINATION":"53.0540","TLE_LINE2":"2 45590  53.0540 234.8123 0002290  51.9297 308.1899 15.06384239139496","PERIOD":"95.593","MEAN_MOTION_DOT":"-0.00002695","ELEMENT_SET_NO":"999","TIME_SYSTEM":"UTC","MEAN_ELEMENT_THEORY":"SGP4","FILE":"3633075","OBJECT_ID":"2020-025BM","CLASSIFICATION_TYPE":"U","OBJECT_NAME":"STARLINK-1365","DECAY_DATE":null,"EPOCH":"2022-10-25T05:45:36.465696","REV_AT_EPOCH":"13949","RA_OF_ASC_NODE":"234.8123","COUNTRY_CODE":"US","SEMIMAJOR_AXIS":"6925.397","TLE_LINE1":"1 45590U 20025BM  22298.24000539 -.00002695  00000-0 -16216-3 0  9991","SITE":"AFETR","MEAN_MOTION":"15.06384239","CENTER_NAME":"EARTH","NORAD_CAT_ID":"45590","LAUNCH_DATE":"2020-04-22","OBJECT_TYPE":"PAYLOAD","EPHEMERIS_TYPE":"0","ECCENTRICITY":"0.00022900","MEAN_MOTION_DDOT":"0.0000000000000","BSTAR":"-0.00016216000000","RCS_SIZE":"LARGE","PERIAPSIS":"545.676","APOAPSIS":"548.848","GP_ID":"216119588","REF_FRAME":"TEME"},{"RA_OF_ASC_NODE":"194.0304","COUNTRY_CODE":"US","SEMIMAJOR_AXIS":"6925.350","NORAD_CAT_ID":"45658","LAUNCH_DATE":"2020-06-04","SITE":"AFETR","TLE_LINE1":"1 45658U 20035B   22298.41324368  .00001013  00000-0  86865-4 0  9994","CENTER_NAME":"EARTH","MEAN_MOTION":"15.06399633","OBJECT_TYPE":"PAYLOAD","EPHEMERIS_TYPE":"0","ECCENTRICITY":"0.00013520","MEAN_MOTION_DDOT":"0.0000000000000","PERIAPSIS":"546.278","APOAPSIS":"548.151","GP_ID":"216121329","REF_FRAME":"TEME","BSTAR":"0.00008686500000","RCS_SIZE":"LARGE","INCLINATION":"53.0548","MEAN_ANOMALY":"284.1807","TLE_LINE2":"2 45658  53.0548 194.0304 0001352  75.9332 284.1807 15.06399633133154","PERIOD":"95.592","ARG_OF_PERICENTER":"75.9332","ELEMENT_SET_NO":"999","TIME_SYSTEM":"UTC","MEAN_MOTION_DOT":"0.00001013","OBJECT_ID":"2020-035B","MEAN_ELEMENT_THEORY":"SGP4","FILE":"3633075","EPOCH":"2022-10-25T09:55:04.253952","REV_AT_EPOCH":"13315","CLASSIFICATION_TYPE":"U","DECAY_DATE":null,"OBJECT_NAME":"STARLINK-1441"},{"MEAN_MOTION_DDOT":"0.0000000000000","ECCENTRICITY":"0.00014910","OBJECT_TYPE":"PAYLOAD","EPHEMERIS_TYPE":"0","REF_FRAME":"TEME","GP_ID":"216119593","APOAPSIS":"548.304","PERIAPSIS":"546.238","RCS_SIZE":"LARGE","BSTAR":"-0.00018251000000","SEMIMAJOR_AXIS":"6925.406","COUNTRY_CODE":"US","RA_OF_ASC_NODE":"194.0285","LAUNCH_DATE":"2020-06-04","NORAD_CAT_ID":"45659","CENTER_NAME":"EARTH","MEAN_MOTION":"15.06381252","TLE_LINE1":"1 45659U 20035C   22298.41599916 -.00002997  00000-0 -18251-3 0  9995","SITE":"AFETR","OBJECT_ID":"2020-035C","FILE":"3633075","MEAN_ELEMENT_THEORY":"SGP4","REV_AT_EPOCH":"13314","EPOCH":"2022-10-25T09:59:02.327424","OBJECT_NAME":"STARLINK-1442","DECAY_DATE":null,"CLASSIFICATION_TYPE":"U","PERIOD":"95.593","TLE_LINE2":"2 45659  53.0526 194.0285 0001491 121.1559 238.9576 15.06381252133145","MEAN_ANOMALY":"238.9576","INCLINATION":"53.0526","ARG_OF_PERICENTER":"121.1559","TIME_SYSTEM":"UTC","ELEMENT_SET_NO":"999","MEAN_MOTION_DOT":"-0.00002997"},{"CLASSIFICATION_TYPE":"U","DECAY_DATE":null,"OBJECT_NAME":"STARLINK-1443","EPOCH":"2022-10-25T10:11:00.987936","REV_AT_EPOCH":"13315","MEAN_ELEMENT_THEORY":"SGP4","FILE":"3633075","OBJECT_ID":"2020-035D","MEAN_MOTION_DOT":"-0.00001677","ELEMENT_SET_NO":"999","TIME_SYSTEM":"UTC","ARG_OF_PERICENTER":"88.4188","MEAN_ANOMALY":"271.6957","INCLINATION":"53.0553","TLE_LINE2":"2 45660  53.0553 193.9913 0001364  88.4188 271.6957 15.06380479133153","PERIOD":"95.593","BSTAR":"-0.00009375200000","RCS_SIZE":"LARGE","PERIAPSIS":"546.329","APOAPSIS":"548.218","GP_ID":"216119843","REF_FRAME":"TEME","OBJECT_TYPE":"PAYLOAD","EPHEMERIS_TYPE":"0","ECCENTRICITY":"0.00013640","MEAN_MOTION_DDOT":"0.0000000000000","TLE_LINE1":"1 45660U 20035D   22298.42431699 -.00001677  00000-0 -93752-4 0  9995","SITE":"AFETR","MEAN_MOTION":"15.06380479","CENTER_NAME":"EARTH","NORAD_CAT_ID":"45660","LAUNCH_DATE":"2020-06-04","RA_OF_ASC_NODE":"193.9913","COUNTRY_CODE":"US","SEMIMAJOR_AXIS":"6925.408"}];
